GLOBALSTAR M084         
1 38040U 11080A   25042.82616907 -.00000080  00000+0  13531-3 0  9991
2 38040  52.0009  70.1165 0000715 117.5236  53.2385 12.62262075607115
GLOBALSTAR M080         
1 38041U 11080B   25042.80042174 -.00000081  00000+0  12647-3 0  9997
2 38041  52.0061  71.7617 0000897 103.1013  68.1261 12.62276897607090
GLOBALSTAR M082         
1 38042U 11080C   25042.41577308 -.00000096  00000+0  41530-4 0  9997
2 38042  52.0092  28.3612 0000174 289.4503 235.2590 12.62272935607617
GLOBALSTAR M092         
1 38043U 11080D   25042.62682260 -.00000093  00000+0  61171-4 0  9995
2 38043  52.0080 118.0900 0000730 125.8518  38.3812 12.62272884606092
GLOBALSTAR M090         
1 38044U 11080E   25042.43657344 -.00000098  00000+0  33635-4 0  9999
2 38044  51.9905  22.2694 0000209  51.1957  87.2278 12.62266607607739
GLOBALSTAR M086         
1 38045U 11080F   25042.70770650 -.00000092  00000+0  65726-4 0  9996
2 38045  51.9917  21.9847 0001160  52.0916 119.4355 12.62266516607813
GLOBALSTAR M097         
1 39072U 13005A   25042.77585238 -.00000067  00000+0  20284-3 0  9990
2 39072  52.0054 296.2017 0000859  57.2366 302.8584 12.62269834555050
GLOBALSTAR M093         
1 39073U 13005B   25042.74884139 -.00000065  00000+0  21901-3 0  9995
2 39073  51.9814 289.7833 0000852  56.0993 303.9954 12.62261435555043
